[{"OBJECT_NAME":"STARLINK-2253","OBJECT_ID":"2021-041AV","EPOCH":"2026-03-09T12:19:56.497440","MEAN_MOTION":15.29352118,"ECCENTRICITY":0.00015568,"INCLINATION":53.1558,"RA_OF_ASC_NODE":140.3593,"ARG_OF_PERICENTER":88.0661,"MEAN_ANOMALY":272.0518,"EPHEMERIS_TYPE":0,"CLASSIFICATION_TYPE":"U","NORAD_CAT_ID":48596,"ELEMENT_SET_NO":999,"REV_AT_EPOCH":26552,"BSTAR":0.00018559269,"MEAN_MOTION_DOT":5.002e-5,"MEAN_MOTION_DDOT":0},{"OBJECT_NAME":"SL-3 R\/B","OBJECT_ID":"1981-065B","EPOCH":"2026-03-09T21:58:16.284000","MEAN_MOTION":15.33300883,"ECCENTRICITY":0.00117648,"INCLINATION":97.6337,"RA_OF_ASC_NODE":111.1786,"ARG_OF_PERICENTER":10.529,"MEAN_ANOMALY":349.6196,"EPHEMERIS_TYPE":0,"CLASSIFICATION_TYPE":"U","NORAD_CAT_ID":12586,"ELEMENT_SET_NO":999,"REV_AT_EPOCH":43499,"BSTAR":0.00030084921,"MEAN_MOTION_DOT":9.62e-5,"MEAN_MOTION_DDOT":0}]
